{"type":"FeatureCollection","features":[{"type":"Feature","properties":{"name":"Cape Freels","description":"Cape Freels area where no quarry permits are available."},"geometry":{"type":"Polygon","coordinates":[[[-53.502454,49.265194],[-53.507544,49.223514],[-53.47943,49.217312],[-53.467981,49.21738],[-53.458765,49.266027],[-53.502454,49.265194]]]}},{"type":"Feature","properties":{"name":"Deadmans Bay","description":"Deadman's Bay area where no quarry permits are available."},"geometry":{"type":"Polygon","coordinates":[[[-53.741886,49.375953],[-53.740952,49.323357],[-53.67338,49.323492],[-53.673555,49.376732],[-53.741886,49.375953]]]}},{"type":"Feature","properties":{"name":"50m setback from coastline","description":"Approximate representation of a 50m setback from costline between Deadman's Bay and Cape freels where no quarry permits are available."},"geometry":{"type":"LineString","coordinates":[[-53.499303,49.265342],[-53.501244,49.268136],[-53.503186,49.270305],[-53.506305,49.271305],[-53.508644,49.272687],[-53.509067,49.273953],[-53.509929,49.274767],[-53.509857,49.27607],[-53.508132,49.278438],[-53.508001,49.279678],[-53.507911,49.280861],[-53.50963,49.280809],[-53.511661,49.280064],[-53.513089,49.279706],[-53.514813,49.279885],[-53.517211,49.27924],[-53.519469,49.278732],[-53.521422,49.278357],[-53.523482,49.277869],[-53.525513,49.27766],[-53.527666,49.277563],[-53.528018,49.276329],[-53.529869,49.275774],[-53.533959,49.274709],[-53.536252,49.275133],[-53.537918,49.274967],[-53.541168,49.275949],[-53.543927,49.277883],[-53.546029,49.277749],[-53.547147,49.278116],[-53.54832,49.27935],[-53.550059,49.279405],[-53.551593,49.279195],[-53.553731,49.278504],[-53.555167,49.278305],[-53.556078,49.277234],[-53.558134,49.276618],[-53.566324,49.278701],[-53.567618,49.280087],[-53.568485,49.281801],[-53.568081,49.285189],[-53.569287,49.287172],[-53.569164,49.289324],[-53.570752,49.290701],[-53.574064,49.294435],[-53.583127,49.295853],[-53.586616,49.298003],[-53.591034,49.298678],[-53.603298,49.299775],[-53.606266,49.303283],[-53.614059,49.308356],[-53.612091,49.314828],[-53.610788,49.316428],[-53.610257,49.319474],[-53.607729,49.32141],[-53.61095,49.323244],[-53.611936,49.321559],[-53.612975,49.320934],[-53.613117,49.319035],[-53.614665,49.315124],[-53.619831,49.313194],[-53.629157,49.312525],[-53.637029,49.313654],[-53.639601,49.315255],[-53.646009,49.316536],[-53.647472,49.314834],[-53.650682,49.313587],[-53.657278,49.314542],[-53.659082,49.316834],[-53.66185,49.316919],[-53.664367,49.318255],[-53.665688,49.320803],[-53.666912,49.322454],[-53.668732,49.322558],[-53.673386,49.323458]]}},{"type":"Feature","properties":{"name":"Piper's Hole","description":"The Hole FID 0 OID_ 0 Name The Hole FolderPath The Hole.kmz SymbolID 0 AltMode 0 Base 0 Clamped -1 Extruded 0 Snippet PopupInfo Shape_Leng 0.083067"},"geometry":{"type":"Polygon","coordinates":[[[-54.271445,47.903905],[-54.265661,47.906033],[-54.2649,47.909008],[-54.261832,47.911373],[-54.264746,47.913701],[-54.268501,47.914012],[-54.269708,47.914794],[-54.270927,47.916726],[-54.270206,47.919029],[-54.27148,47.919771],[-54.276566,47.919998],[-54.276519,47.921846],[-54.285437,47.922408],[-54.291363,47.919164],[-54.288824,47.914993],[-54.288008,47.911735],[-54.289861,47.909697],[-54.288266,47.906565],[-54.281322,47.903026],[-54.271445,47.903905]],[[-54.281097,47.920592],[-54.273475,47.919584],[-54.271536,47.917914],[-54.271618,47.91648],[-54.26918,47.913917],[-54.272764,47.910744],[-54.275342,47.911316],[-54.277027,47.910598],[-54.278325,47.911474],[-54.281382,47.910854],[-54.285384,47.913118],[-54.283291,47.913546],[-54.279945,47.912728],[-54.279539,47.91376],[-54.281186,47.913736],[-54.283994,47.916144],[-54.286717,47.916059],[-54.286332,47.917312],[-54.281097,47.920592]]]}},{"type":"Feature","properties":{"name":"Seal Cove"},"geometry":{"type":"Polygon","coordinates":[[[-53.052992,47.437688],[-53.048442,47.426754],[-53.019758,47.422982],[-53.021514,47.443231],[-53.035522,47.449992],[-53.041846,47.450212],[-53.041694,47.444158],[-53.050493,47.444152],[-53.052992,47.437688]]]}}]}