{"type":"FeatureCollection","features":[{"type":"Feature","properties":{"name":"7051889 81296 NL Inc. - Issued May 21/24; Expires May 20, 2025 [ROCK]","description":"0 FID 0 Id 0"},"geometry":{"type":"Polygon","coordinates":[[[-55.467743,47.683123],[-55.427786,47.682582],[-55.427245,47.700571],[-55.467216,47.701112],[-55.467743,47.683123]]]}},{"type":"Feature","properties":{"name":"7051890 81296 NL Inc. - Issued May 21/24; Expires May 20, 2025 [ROCK]","description":"0 FID 0 Id 0"},"geometry":{"type":"Polygon","coordinates":[[[-55.420433,47.484521],[-55.419893,47.502511],[-55.48626,47.503406],[-55.487035,47.476421],[-55.473768,47.476246],[-55.473508,47.48524],[-55.420433,47.484521]]]}},{"type":"Feature","properties":{"name":"7051891 81296 NL Inc. - Issued May 21/24; Expires May 20, 2025 [ROCK]","description":"0 FID 0 Id 0"},"geometry":{"type":"Polygon","coordinates":[[[-55.418271,47.556478],[-55.458132,47.557021],[-55.458923,47.530037],[-55.419083,47.529494],[-55.418271,47.556478]]]}},{"type":"Feature","properties":{"name":"7051892 81296 NL Inc - Issued May 21/24; Expires May 20, 2025 [ROCK]","description":"0 FID 0 Id 0"},"geometry":{"type":"Polygon","coordinates":[[[-55.404438,47.574282],[-55.457603,47.57501],[-55.458132,47.557021],[-55.418271,47.556478],[-55.418542,47.547483],[-55.405257,47.547299],[-55.404438,47.574282]]]}},{"type":"Feature","properties":{"name":"7051897 Newcrete Investments GP Ltd. - Issued May 21/24; Expires May 20, 2025 [Sand & Gravel]","description":"0 Id 0"},"geometry":{"type":"Polygon","coordinates":[[[-55.759447,48.85626],[-55.79352,48.856621],[-55.79406,48.834137],[-55.760002,48.833775],[-55.759447,48.85626]]]}},{"type":"Feature","properties":{"name":"7051898 Newcrete Investments GP Ltd. - Issued May 21/24; Expires May 20, 2025 [Sand & Gravel]","description":"0 Id 0"},"geometry":{"type":"Polygon","coordinates":[[[-55.588712,48.86779],[-55.636423,48.868365],[-55.637399,48.832391],[-55.589723,48.831818],[-55.588712,48.86779]]]}},{"type":"Feature","properties":{"name":"7051899 Newcrete Investments GP Ltd - Issued May 21/24; Expires May 20/25 [Sand & Gravel]","description":"0 Id 0"},"geometry":{"type":"Polygon","coordinates":[[[-55.781418,48.793521],[-55.842674,48.794152],[-55.842984,48.780661],[-55.877007,48.780998],[-55.877208,48.772004],[-55.904422,48.772266],[-55.904911,48.74978],[-55.877709,48.749518],[-55.877508,48.758512],[-55.782288,48.757545],[-55.781418,48.793521]]]}},{"type":"Feature","properties":{"name":"7051900 Newcrete Investments GP Ltd - Issued May 21/24; Expires May 20/25 [Sand & Gravel]","description":"0 Id 0"},"geometry":{"type":"Polygon","coordinates":[[[-55.750616,48.937129],[-55.87348,48.938395],[-55.873683,48.929401],[-55.798611,48.928643],[-55.798827,48.919649],[-55.819297,48.919861],[-55.819721,48.901873],[-55.792438,48.901591],[-55.792221,48.910584],[-55.751289,48.910148],[-55.750616,48.937129]]]}},{"type":"Feature","properties":{"name":"7051901 Newcrete Investments GP - Issued May 21/24; Expires May 20, 2025  [Sand & Gravel]","description":"0 Id 0"},"geometry":{"type":"Polygon","coordinates":[[[-54.938617,48.925472],[-55.013653,48.926789],[-55.015078,48.890827],[-54.974178,48.890116],[-54.973815,48.899106],[-54.953362,48.898745],[-54.952995,48.907735],[-54.939357,48.907492],[-54.938617,48.925472]]]}},{"type":"Feature","properties":{"name":"7051902 Newcrete Investments GP - Issued May 21/24; Expires May 20, 2025 [Sand & Gravel]","description":"0 Id 0"},"geometry":{"type":"Polygon","coordinates":[[[-55.374182,49.175329],[-55.415325,49.175901],[-55.415756,49.162414],[-55.436322,49.162694],[-55.436605,49.153702],[-55.464023,49.15407],[-55.46444,49.140582],[-55.43703,49.140214],[-55.437312,49.131222],[-55.42361,49.131036],[-55.422754,49.158011],[-55.381625,49.157442],[-55.382065,49.143955],[-55.375212,49.143858],[-55.374182,49.175329]]]}},{"type":"Feature","properties":{"name":"7051903 Newcrete Investments GP Ltd - Issued May 22/24; Expires May 21/25 [Sand & Gravel]","description":"0 Id 0"},"geometry":{"type":"Polygon","coordinates":[[[-55.309438,49.06195],[-55.377853,49.062932],[-55.37873,49.035956],[-55.310353,49.034975],[-55.309438,49.06195]]]}},{"type":"Feature","properties":{"name":"7051904 Newcrete Investments GP Ltd. - Issued May 22/24; Expires May 21/25 [Sand & Gravel]","description":"0 Id 0"},"geometry":{"type":"Polygon","coordinates":[[[-54.280863,48.844353],[-54.301283,48.844833],[-54.300075,48.867298],[-54.334126,48.868091],[-54.336273,48.827653],[-54.322663,48.827338],[-54.323142,48.818351],[-54.309535,48.818034],[-54.310257,48.804555],[-54.283051,48.803917],[-54.280863,48.844353]]]}},{"type":"Feature","properties":{"name":"7051905 Newcrete Investments GP Ltd. - Issued May 22/24; Expires May 21/25 [Sand & Gravel]","description":"0 Id 0"},"geometry":{"type":"Polygon","coordinates":[[[-54.245197,48.749034],[-54.306344,48.75048],[-54.308024,48.719029],[-54.246916,48.717584],[-54.245197,48.749034]]]}},{"type":"Feature","properties":{"name":"7051906 Newcrete Investments GP - Issued May 22/24; Expires May 21, 2025  [Sand & Gravel]","Id":"0"},"geometry":{"type":"Polygon","coordinates":[[[-57.054082,48.440101],[-57.054078,48.435603],[-57.060837,48.4356],[-57.060832,48.431102],[-57.067591,48.431098],[-57.067579,48.422101],[-57.074337,48.422097],[-57.074324,48.413101],[-57.081081,48.413096],[-57.081066,48.404099],[-57.087822,48.404094],[-57.087799,48.3906],[-57.094552,48.390594],[-57.094544,48.386096],[-57.101297,48.38609],[-57.10127,48.372595],[-57.108022,48.372589],[-57.108012,48.368091],[-57.114763,48.368084],[-57.114753,48.363586],[-57.128253,48.363572],[-57.128231,48.354575],[-57.107984,48.354596],[-57.107993,48.359094],[-57.087745,48.359112],[-57.08776,48.368108],[-57.081009,48.368113],[-57.081024,48.37711],[-57.074272,48.377114],[-57.074285,48.386111],[-57.067531,48.386115],[-57.067543,48.395112],[-57.013509,48.395131],[-57.01351,48.399629],[-57.067549,48.39961],[-57.067561,48.408606],[-57.060805,48.40861],[-57.060811,48.413108],[-57.054054,48.413112],[-57.054059,48.41761],[-57.047301,48.417613],[-57.047305,48.422111],[-57.040548,48.422114],[-57.040562,48.440107],[-57.054082,48.440101]]]}},{"type":"Feature","properties":{"name":"7051907 Newcrete Investments GP Ltd - Issued May 22/24; Expires May 21/25 [Sand & Gravel]","description":"0 Id 0"},"geometry":{"type":"Polygon","coordinates":[[[-55.144387,49.266322],[-55.199339,49.267192],[-55.201626,49.204256],[-55.146744,49.203388],[-55.144387,49.266322]]]}},{"type":"Feature","properties":{"name":"7051908 Newcrete Investments GP Ltd. - Issued May 22/24; Expires May 21/25 [Sand & Gravel]","description":"2 OBJECTID_1 1 Id 0 Shape_Leng 18000"},"geometry":{"type":"Polygon","coordinates":[[[-55.030127,49.201458],[-55.064425,49.202038],[-55.066703,49.143601],[-55.032445,49.143022],[-55.030127,49.201458]]]}},{"type":"Feature","properties":{"name":"7051923 Shoreline Aggregates Inc - Issued May 21/24; Expires May 20, 2025 [ROCK]","description":"22000"},"geometry":{"type":"Polygon","coordinates":[[[-56.051518,49.983425],[-56.135197,49.984079],[-56.135277,49.979583],[-56.14225,49.979634],[-56.14265,49.957152],[-56.149619,49.957203],[-56.149778,49.94821],[-56.052224,49.947454],[-56.051518,49.983425]]]}},{"type":"Feature","properties":{"name":"7051924 Hi-Point Industries - Issued May 21/24; Expires May 20, 2025 [Peat]","description":"5000"},"geometry":{"type":"Polygon","coordinates":[[[-55.419616,49.041021],[-55.440132,49.0413],[-55.440273,49.036804],[-55.426596,49.036619],[-55.426738,49.032123],[-55.419901,49.032029],[-55.419616,49.041021]]]}},{"type":"Feature","properties":{"name":"7051929 On-Grade Construction - Issued May 21/24; Expires May 20, 2025 [Rock, Sand & Gravel]","description":"21000 SHAPE Polygon SHAPE_Length 21000 SHAPE_Area 12500000"},"geometry":{"type":"Polygon","coordinates":[[[-58.500255,48.421337],[-58.513766,48.42116],[-58.513632,48.416663],[-58.527142,48.416484],[-58.527007,48.411988],[-58.54727,48.411717],[-58.546997,48.402724],[-58.55375,48.402633],[-58.553476,48.393639],[-58.566979,48.393456],[-58.566289,48.370973],[-58.539294,48.371338],[-58.539701,48.384828],[-58.53295,48.384918],[-58.533221,48.393911],[-58.526469,48.394001],[-58.526603,48.398498],[-58.513098,48.398676],[-58.513365,48.407669],[-58.499858,48.407846],[-58.500255,48.421337]]]}},{"type":"Feature","properties":{"name":"7051913 Hi Point Industries - Issued Nov 17/23; Expires Nov 16/24 [PEAT]","Id":"0"},"geometry":{"type":"Polygon","coordinates":[[[-54.47194,49.109613],[-54.472625,49.096133],[-54.465783,49.095983],[-54.465554,49.100476],[-54.451869,49.100175],[-54.451408,49.109161],[-54.47194,49.109613]]]}},{"type":"Feature","properties":{"name":"7051914 Marathon Gold Corp - Issued Nov 15/23; Expires Nov 14/24 [Sand & Gravel, Rock]","LAYER":"QMEL-NEWCRETE","GM_TYPE":"Unknown Area Type","ELEVATION":"0.0"},"geometry":{"type":"Polygon","coordinates":[[[-57.128378,48.413053],[-57.128321,48.390562],[-57.148582,48.390537],[-57.148569,48.386039],[-57.141816,48.386047],[-57.141791,48.377051],[-57.148543,48.377042],[-57.14853,48.372544],[-57.155281,48.372535],[-57.155267,48.368037],[-57.17552,48.368008],[-57.175504,48.363509],[-57.195755,48.363477],[-57.195686,48.345484],[-57.161947,48.345536],[-57.161933,48.341038],[-57.141691,48.341064],[-57.141704,48.345563],[-57.134956,48.345571],[-57.134968,48.350069],[-57.128219,48.350077],[-57.128253,48.363572],[-57.114753,48.363586],[-57.114763,48.368084],[-57.108012,48.368091],[-57.108022,48.372589],[-57.10127,48.372595],[-57.101297,48.38609],[-57.094544,48.386096],[-57.094552,48.390594],[-57.087799,48.3906],[-57.087822,48.404094],[-57.081066,48.404099],[-57.081081,48.413096],[-57.074324,48.413101],[-57.074337,48.422097],[-57.067579,48.422101],[-57.067591,48.431098],[-57.060832,48.431102],[-57.060837,48.4356],[-57.054078,48.435603],[-57.054082,48.440101],[-57.087884,48.440081],[-57.087845,48.417589],[-57.087837,48.413091],[-57.128378,48.413053]]]}},{"type":"Feature","properties":{"name":"7051915 Pearce Bradley - Issued May 29/24; Expires May 28/24 [Rock]","Id":"0"},"geometry":{"type":"Polygon","coordinates":[[[-56.056564,47.54101],[-56.056644,47.536512],[-56.069929,47.53662],[-56.070009,47.532122],[-56.089935,47.532282],[-56.090012,47.527784],[-56.129861,47.528093],[-56.129936,47.523594],[-56.156499,47.523793],[-56.156571,47.519294],[-56.163212,47.519343],[-56.163283,47.514844],[-56.176563,47.514941],[-56.176634,47.510442],[-56.189912,47.510537],[-56.190189,47.492542],[-56.176915,47.492448],[-56.176985,47.487949],[-56.170349,47.487902],[-56.17042,47.483403],[-56.084154,47.482746],[-56.083841,47.50074],[-56.090479,47.500793],[-56.090168,47.518787],[-56.056967,47.518518],[-56.056806,47.527515],[-56.043523,47.527405],[-56.043278,47.5409],[-56.056564,47.54101]]]}},{"type":"Feature","properties":{"name":"7051916 Newcrete - Issued Nov 17/23; Expires Nov 16/24 [Sand & Gravel].kmz","Id":"0"},"geometry":{"type":"Polygon","coordinates":[[[-57.128764,48.565992],[-57.128753,48.561494],[-57.135529,48.561486],[-57.135505,48.55249],[-57.108404,48.552518],[-57.108385,48.543522],[-57.101611,48.543528],[-57.101602,48.53903],[-57.088055,48.539041],[-57.088071,48.548037],[-57.094845,48.548032],[-57.094871,48.561527],[-57.108423,48.561515],[-57.108433,48.566013],[-57.128764,48.565992]]]}},{"type":"Feature","properties":{"name":"7051917 Newcrete - Issued Nov 17/23; Expires Nov 16/24 [Sand & Gravel].kmz","Id":"0"},"geometry":{"type":"Polygon","coordinates":[[[-57.060999,48.570546],[-57.060983,48.557051],[-57.047431,48.557058],[-57.047435,48.561556],[-57.027106,48.561562],[-57.027099,48.548068],[-57.020324,48.548069],[-57.02032,48.539073],[-57.013547,48.539074],[-57.013543,48.52558],[-57.006772,48.52558],[-57.006775,48.548071],[-57.013549,48.54807],[-57.013555,48.570561],[-57.060999,48.570546]]]}},{"type":"Feature","properties":{"name":"7051918 Newcrete Investments GP Ltd. - Issued May 29/24; Expires May 28/25 [Sand & Gravel]","description":"7051850 Newcrete - Expiry March 31, 2023 OID_ 0 Name 7051850 Newcrete - Expiry March 31, 2023 FolderPath 7051850 Newcrete - Expiry March 31, 2023.kmz SymbolID 0 AltMode 0 Base 0 Clamped -1 Extruded 0 Snippet PopupInfo Shape_Leng 0.274903"},"geometry":{"type":"Polygon","coordinates":[[[-57.013535,48.494092],[-57.013525,48.458106],[-56.932373,48.458087],[-56.932361,48.467084],[-56.993236,48.467103],[-56.993234,48.480598],[-56.986469,48.480597],[-56.986467,48.485096],[-56.979701,48.485095],[-56.979699,48.489593],[-56.972932,48.489592],[-56.97293,48.49409],[-57.013535,48.494092]]]}},{"type":"Feature","properties":{"name":"7051919 Newcrete Investments GP Ltd. - Issued May 29/24; Expires May 28/25 [Sand & Gravel]","description":"7051851 Newcrete - Expiry March 31, 2023 [Sand &amp; Gravel] OID_ 0 Name 7051851 Newcrete - Expiry March 31, 2023 [Sand &amp; Gravel] FolderPath 7051919 Newcrete [Sand &amp; Gravel].kmz SymbolID 0 AltMode 0 Base 0 Clamped -1 Extruded 0 Snippet PopupInfo Shape_Leng 0.153053"},"geometry":{"type":"Polygon","coordinates":[[[-56.736396,48.430816],[-56.736419,48.426317],[-56.743178,48.426333],[-56.743246,48.412838],[-56.750002,48.412853],[-56.750024,48.408355],[-56.75678,48.408369],[-56.756845,48.394874],[-56.743336,48.394845],[-56.743314,48.399343],[-56.736559,48.399328],[-56.736536,48.403826],[-56.72978,48.403811],[-56.729756,48.408309],[-56.723,48.408293],[-56.722952,48.417289],[-56.716194,48.417273],[-56.716119,48.430767],[-56.736396,48.430816]]]}},{"type":"Feature","properties":{"name":"7051920 Newcrete Investments GP Ltd. - Issued May 29/24; Expires May 28/25 [Sand & Gravel]","description":"7051853 Newcrete - Expiry March 31, 2023 [Sand &amp; Gravel] Name 7051853 Newcrete - Expiry March 31, 2023 [Sand &amp; Gravel] FolderPath 7051920 Newcrete Investments GP [Sand &amp; Gravel].kmz SymbolID 0 AltMode 0 Base 0 Clamped -1 Extruded 0 Snippet PopupInfo"},"geometry":{"type":"Polygon","coordinates":[[[-56.749094,48.597277],[-56.749183,48.579285],[-56.722068,48.579223],[-56.721969,48.597215],[-56.749094,48.597277]]]}},{"type":"Feature","properties":{"name":"7051921 Newcrete Investments GP Ltd. - Issued May 29/24; Expires May 28/25 [Sand & Gravel]","description":"67000 SHAPE Polygon SHAPE_Length 67000 SHAPE_Area 38000000"},"geometry":{"type":"Polygon","coordinates":[[[-56.51738,48.717988],[-56.537772,48.718072],[-56.537854,48.709076],[-56.531058,48.709049],[-56.531183,48.695555],[-56.537977,48.695582],[-56.53806,48.686587],[-56.544853,48.686614],[-56.545177,48.65063],[-56.551965,48.650657],[-56.552005,48.646159],[-56.558792,48.646185],[-56.558832,48.641687],[-56.565619,48.641713],[-56.565657,48.637215],[-56.572444,48.63724],[-56.572482,48.632742],[-56.586053,48.632792],[-56.58609,48.628294],[-56.606446,48.628365],[-56.606481,48.623867],[-56.62005,48.623913],[-56.620084,48.619415],[-56.626868,48.619437],[-56.626901,48.614939],[-56.640468,48.614982],[-56.640436,48.61948],[-56.654004,48.619522],[-56.654096,48.606028],[-56.647314,48.606007],[-56.647471,48.583517],[-56.633912,48.583474],[-56.633782,48.601467],[-56.627,48.601445],[-56.626967,48.605943],[-56.613403,48.605898],[-56.613368,48.610396],[-56.606586,48.610373],[-56.606551,48.614871],[-56.592984,48.614824],[-56.592948,48.619322],[-56.572596,48.619248],[-56.572558,48.623746],[-56.558988,48.623695],[-56.558949,48.628193],[-56.545379,48.62814],[-56.545298,48.637136],[-56.531725,48.637082],[-56.531392,48.673065],[-56.524601,48.673038],[-56.524558,48.677535],[-56.497391,48.67742],[-56.497436,48.672922],[-56.483854,48.672862],[-56.4839,48.668364],[-56.470319,48.668303],[-56.470366,48.663805],[-56.456786,48.663742],[-56.456641,48.677235],[-56.463433,48.677267],[-56.463385,48.681765],[-56.470177,48.681796],[-56.47013,48.686294],[-56.463337,48.686263],[-56.463242,48.695258],[-56.470036,48.69529],[-56.469989,48.699788],[-56.483578,48.699849],[-56.48367,48.690854],[-56.490464,48.690884],[-56.490418,48.695382],[-56.510801,48.69547],[-56.510713,48.704466],[-56.517509,48.704495],[-56.51738,48.717988]]]}},{"type":"Feature","properties":{"name":"7051922 Shoal Harbour Sand Products Ltd. - Issued May 29/24; Expires May 28/25","Id":"0"},"geometry":{"type":"Polygon","coordinates":[[[-54.221454,48.190604],[-54.222426,48.172631],[-54.114959,48.169982],[-54.11395,48.187953],[-54.221454,48.190604]]]}},{"type":"Feature","properties":{"name":"7051934 Newcrete Investments GP Ltd. - Issued June 4/24; Expires June 4/25 [Sand & Gravel]","description":"Comments"},"geometry":{"type":"Polygon","coordinates":[[[-58.67992,48.571775],[-58.646036,48.572237],[-58.645752,48.563272],[-58.679622,48.562783],[-58.67992,48.571775]]]}},{"type":"Feature","properties":{"name":"7051935 Newcrete Investments GP Ltd. - Issued June 4/24; Expires June 4/25 [Sand & Gravel]","description":"Comments"},"geometry":{"type":"Polygon","coordinates":[[[-58.531675,48.600834],[-58.504556,48.601191],[-58.504289,48.592198],[-58.483954,48.592462],[-58.483295,48.569979],[-58.510397,48.569627],[-58.510799,48.583116],[-58.531131,48.582848],[-58.531675,48.600834]]]}},{"type":"Feature","properties":{"name":"7051936 Newcrete Investments GP Ltd. - Issued June 4/24; Expires June 4/25 [Sand & Gravel]","description":"Comments"},"geometry":{"type":"Polygon","coordinates":[[[-58.390286,48.638615],[-58.363146,48.638939],[-58.362661,48.620952],[-58.376227,48.62079],[-58.375493,48.593809],[-58.409388,48.593399],[-58.409638,48.602393],[-58.402858,48.602476],[-58.403108,48.611469],[-58.396326,48.611552],[-58.396574,48.620545],[-58.389792,48.620627],[-58.390286,48.638615],[-58.390286,48.638615]]]}},{"type":"Feature","properties":{"name":"7051937 Newcrete Investments GP Ltd. - Issued June 4/24; Expires June 4/25 [Sand & Gravel]","description":"Commnets"},"geometry":{"type":"Polygon","coordinates":[[[-58.918199,48.059703],[-58.891371,48.060148],[-58.890712,48.042164],[-58.917531,48.041719],[-58.918199,48.059703]]]}},{"type":"Feature","properties":{"name":"7051938 Newcrete Investments GP Ltd. - Issued June 4/24; Expires June 4/25 [Sand & Gravel]","description":"Comments"},"geometry":{"type":"Polygon","coordinates":[[[-58.806856,48.137988],[-58.779986,48.138408],[-58.779209,48.115926],[-58.806067,48.115507],[-58.806856,48.137988]]]}},{"type":"Feature","properties":{"name":"7051939 Newcrete Investments GP Ltd. - Issued June 4/24; Expires June 4/25 [Sand & Gravel]","description":"Com"},"geometry":{"type":"Polygon","coordinates":[[[-58.917197,48.032727],[-58.890383,48.033172],[-58.889561,48.010691],[-58.916363,48.010247],[-58.917197,48.032727]]]}},{"type":"Feature","properties":{"name":"7051940 Newcrete Investments GP Ltd. - Issued June 4/24; Expires June 4/25 [Sand & Gravel]","description":"Comments"},"geometry":{"type":"Polygon","coordinates":[[[-58.390286,48.638615],[-58.390533,48.647608],[-58.349816,48.648093],[-58.349096,48.621111],[-58.362661,48.620952],[-58.363146,48.638939],[-58.390286,48.638615]]]}},{"type":"Feature","properties":{"name":"7051941 Morien Resources Corporation - Issued Oct 25/24; Expires Oct 24/25 [Rock, Sand, Gravel]","description":"comments"},"geometry":{"type":"Polygon","coordinates":[[[-57.565777,47.636014],[-57.579089,47.635947],[-57.57889,47.617953],[-57.618811,47.617744],[-57.619023,47.635739],[-57.612367,47.635775],[-57.612578,47.653769],[-57.565971,47.654008],[-57.565777,47.636014]]]}},{"type":"Feature","properties":{"name":"7051942 Morien Resources Corporation - Issued Oct 25/24; Expires Oct 24/25 [Rock, Sand, Gravel]","description":"Comments"},"geometry":{"type":"Polygon","coordinates":[[[-54.10553,47.857333],[-54.112206,47.857501],[-54.112705,47.848515],[-54.11938,47.848683],[-54.119878,47.839697],[-54.126551,47.839864],[-54.1268,47.835371],[-54.14682,47.835871],[-54.146573,47.840364],[-54.159921,47.840695],[-54.159676,47.845188],[-54.159184,47.854174],[-54.152509,47.854009],[-54.152016,47.862995],[-54.145339,47.862829],[-54.144845,47.871816],[-54.138168,47.871649],[-54.137672,47.880635],[-54.104278,47.879797],[-54.10553,47.857333]]]}},{"type":"Feature","properties":{"name":"7051943 Morien Resources Corporation - Issued Oct 25/24; Expires Oct 24/25 [Rock, Sand, Gravel]","description":"Comments"},"geometry":{"type":"Polygon","coordinates":[[[-56.016002,49.670849],[-56.016183,49.661855],[-56.02311,49.661914],[-56.02329,49.652921],[-56.037142,49.653037],[-56.037231,49.64854],[-56.051082,49.648655],[-56.051257,49.639661],[-56.085878,49.63994],[-56.086046,49.630946],[-56.092969,49.631001],[-56.093136,49.622007],[-56.100058,49.622061],[-56.10014,49.617564],[-56.113983,49.617671],[-56.114146,49.608678],[-56.141825,49.608886],[-56.141588,49.622377],[-56.134666,49.622325],[-56.134587,49.626822],[-56.127664,49.62677],[-56.127584,49.631267],[-56.120661,49.631214],[-56.12058,49.635711],[-56.113656,49.635658],[-56.113575,49.640155],[-56.10665,49.640102],[-56.106568,49.644599],[-56.099643,49.644545],[-56.09956,49.649042],[-56.092635,49.648988],[-56.092551,49.653484],[-56.092468,49.657981],[-56.085541,49.657927],[-56.085456,49.662423],[-56.078529,49.662368],[-56.078444,49.666865],[-56.064588,49.666754],[-56.064502,49.671251],[-56.016002,49.670849]]]}},{"type":"Feature","properties":{"name":"7051944 Morien Resources Corporation - Issued Oct 25/24; Expires Oct 24/25 [Rock, Sand, Gravel]","description":"Comments"},"geometry":{"type":"Polygon","coordinates":[[[-56.769947,49.96262],[-56.770011,49.949129],[-56.770033,49.944632],[-56.777002,49.944645],[-56.777043,49.935651],[-56.78401,49.935665],[-56.78407,49.922174],[-56.791036,49.922186],[-56.791075,49.913192],[-56.798039,49.913204],[-56.798114,49.895216],[-56.846845,49.895291],[-56.846674,49.949256],[-56.818796,49.949215],[-56.818763,49.958209],[-56.797851,49.958175],[-56.797832,49.962672],[-56.769947,49.96262],[-56.769947,49.96262]]]}},{"type":"Feature","properties":{"name":"7051945 Morien Resources Corporation - Issued Oct 25/24; Expires Oct 24/25 [Rock, Sand, Gravel]","description":"Comments"},"geometry":{"type":"Polygon","coordinates":[[[-53.81365,48.948081],[-53.81264,48.930111],[-53.826276,48.929778],[-53.826022,48.925285],[-53.83284,48.925118],[-53.839657,48.92495],[-53.839402,48.920458],[-53.846219,48.920289],[-53.845963,48.915797],[-53.873227,48.915121],[-53.872969,48.910628],[-53.934303,48.909083],[-53.93483,48.918067],[-53.928014,48.91824],[-53.928277,48.922732],[-53.92146,48.922905],[-53.921723,48.927397],[-53.908088,48.927742],[-53.908349,48.932234],[-53.901531,48.932406],[-53.901792,48.936898],[-53.894973,48.93707],[-53.895753,48.950546],[-53.882112,48.950888],[-53.882371,48.95538],[-53.87555,48.95555],[-53.875809,48.960042],[-53.855343,48.960551],[-53.855086,48.956059],[-53.848264,48.956228],[-53.848008,48.951736],[-53.813903,48.952573],[-53.81365,48.948081]]]}}]}